NORAD_CAT_ID,OBJECT_NAME,OBJECT_TYPE,EPOCH,MEAN_MOTION,ECCENTRICITY,INCLINATION,RA_OF_ASC_NODE,ARG_OF_PERICENTER,MEAN_ANOMALY,BSTAR,MEAN_MOTION_DOT,MEAN_MOTION_DDOT,TLE_LINE0,TLE_LINE1,TLE_LINE2,SEMIMAJOR_AXIS,PERIOD,APOGEE,PERIGEE,DECAYED
53261.0,STARLINK-4062,PAYLOAD,2022-11-30 05:37:47,15.08834067,0.000159,53.2183,160.71200000000005,69.6194,290.4969,0.00011225,1.499e-05,0.0,0 STARLINK-4062,1 53261U 22086V   22334.23457308  .00001499  00000-0  11225-3 0  9998,2 53261  53.2183 160.7120 0001590  69.6194 290.4969 15.08834067 20416,6917.899,95.438,540.863,538.664,0.0
53261.0,STARLINK-4062,PAYLOAD,2022-11-30 15:10:05,15.08838025,0.0001592,53.2181,158.9277,70.1637,289.9527,0.00010091,1.318e-05,0.0,0 STARLINK-4062,1 53261U 22086V   22334.63201235  .00001318  00000-0  10091-3 0  9998,2 53261  53.2181 158.9277 0001592  70.1637 289.9527 15.08838025 20654,6917.886,95.438,540.8530000000002,538.65,0.0
53261.0,STARLINK-4062,PAYLOAD,2022-12-01 05:28:33,15.08842532,0.0001598,53.2182,156.2516,71.4388,288.6778,0.00011559,1.552e-05,0.0,0 STARLINK-4062,1 53261U 22086V   22335.22816980  .00001552  00000-0  11559-3 0  9993,2 53261  53.2182 156.2516 0001598  71.4388 288.6778 15.08842532 20747,6917.873000000001,95.437,540.8430000000002,538.632,0.0
53261.0,STARLINK-4062,PAYLOAD,2022-12-01 18:11:38,15.08846116,0.0001555,53.2183,153.8726,71.8157,288.3004,0.00011124,1.483e-05,0.0,0 STARLINK-4062,1 53261U 22086V   22335.75808647  .00001483  00000-0  11124-3 0  9993,2 53261  53.2183 153.8726 0001555  71.8157 288.3004 15.08846116 20645,6917.861999999999,95.437,540.802,538.651,0.0
53261.0,STARLINK-4062,PAYLOAD,2022-12-02 11:40:53,15.08845089,0.0001691,53.2179,150.602,73.6225,286.4953,5.3006e-05,5.56e-06,0.0,0 STARLINK-4062,1 53261U 22086V   22336.48672574  .00000556  00000-0  53006-4 0  9998,2 53261  53.2179 150.6020 0001691  73.6225 286.4953 15.08845089 20931,6917.865,95.437,540.9,538.56,0.0
53261.0,STARLINK-4062,PAYLOAD,2022-12-02 18:02:25,15.08839962,0.0001611,53.2184,149.4123,73.1821,286.9348,7.5982e-06,-1.67e-06,0.0,0 STARLINK-4062,1 53261U 22086V   22336.75168936 -.00000167  00000-0  75982-5 0  9997,2 53261  53.2184 149.4123 0001611  73.1821 286.9348 15.08839962 20796,6917.880999999999,95.438,540.86,538.631,0.0
53261.0,STARLINK-4062,PAYLOAD,2022-12-03 05:10:11,15.08803698,0.0002039,53.2185,147.33100000000005,73.9697,286.1519,-0.00029648,-4.999e-05,0.0,0 STARLINK-4062,1 53261U 22086V   22337.21540804 -.00004999  00000-0 -29648-3 0  9991,2 53261  53.2185 147.3310 0002039  73.9697 286.1519 15.08803698 20863,6917.991,95.44,541.2669999999998,538.446,0.0
53261.0,STARLINK-4062,PAYLOAD,2022-12-03 17:53:13,15.08838764,0.0001595999999999,53.2185,144.9516,70.2331,289.8833,2.5921e-06,-2.47e-06,0.0,0 STARLINK-4062,1 53261U 22086V   22337.74529926 -.00000247  00000-0  25921-5 0  9994,2 53261  53.2185 144.9516 0001596  70.2331 289.8833 15.08838764 20946,6917.884,95.438,540.8530000000002,538.645,0.0
53261.0,STARLINK-4062,PAYLOAD,2022-12-03 22:39:22,15.08845666,0.0001509,53.2185,144.0603,61.5299,298.5845,4.473e-05,4.24e-06,0.0,0 STARLINK-4062,1 53261U 22086V   22337.94401331  .00000424  00000-0  44730-4 0  9999,2 53261  53.2185 144.0603 0001509  61.5299 298.5845 15.08845666 20976,6917.863,95.437,540.7719999999998,538.684,0.0
53261.0,STARLINK-4062,PAYLOAD,2022-12-04 11:22:27,15.0884562,0.0001524,53.2185,141.6815,61.2609,298.8536,3.3581e-05,2.47e-06,0.0,0 STARLINK-4062,1 53261U 22086V   22338.47393376  .00000247  00000-0  33581-4 0  9992,2 53261  53.2185 141.6815 0001524  61.2609 298.8536 15.08845620 21233,6917.863,95.437,540.7819999999998,538.674,0.0
53261.0,STARLINK-4062,PAYLOAD,2022-12-04 17:44:00,15.08849617,0.0001494,53.2185,140.4914,64.183,295.9316,9.3054e-05,1.194e-05,0.0,0 STARLINK-4062,1 53261U 22086V   22338.73888994  .00001194  00000-0  93054-4 0  9999,2 53261  53.2185 140.4914 0001494  64.1830 295.9316 15.08849617 21272,6917.851,95.437,540.75,538.682,0.0
53261.0,STARLINK-4062,PAYLOAD,2022-12-05 09:37:51,15.08857994,0.0001658,53.2178,137.5178,64.2636,295.8527,0.00034026,5.134e-05,0.0,0 STARLINK-4062,1 53261U 22086V   22339.40129163  .00005134  00000-0  34026-3 0  9991,2 53261  53.2178 137.5178 0001658  64.2636 295.8527 15.08857994 21191,6917.825,95.436,540.837,538.543,0.0
53261.0,STARLINK-4062,PAYLOAD,2022-12-05 17:34:47,15.0885159,0.0001611,53.2182,136.0306,61.9567,298.1588,0.00020131,2.918e-05,0.0,0 STARLINK-4062,1 53261U 22086V   22339.73249256  .00002918  00000-0  20131-3 0  9992,2 53261  53.2182 136.0306 0001611  61.9567 298.1588 15.08851590 21244,6917.845,95.437,540.8240000000002,538.595,0.0
53261.0,STARLINK-4062,PAYLOAD,2022-12-06 11:04:01,15.08845419,0.0001583,53.2187,132.7599,60.6178,299.4972,-3.7832e-05,-8.900000000000001e-06,0.0,0 STARLINK-4062,1 53261U 22086V   22340.46112953 -.00000890  00000-0 -37832-4 0  9993,2 53261  53.2187 132.7599 0001583  60.6178 299.4972 15.08845419 21354,6917.864000000001,95.437,540.8240000000002,538.634,0.0
53261.0,STARLINK-4062,PAYLOAD,2022-12-06 20:36:20,15.08843361,0.0001601,53.2201,130.9764,55.8568,304.2576,-3.9591e-05,-9.18e-06,0.0,0 STARLINK-4062,1 53261U 22086V   22340.85857400 -.00000918  00000-0 -39591-4 0  9994,2 53261  53.2201 130.9764 0001601  55.8568 304.2576 15.08843361 21590,6917.87,95.437,540.8430000000002,538.628,0.0
53261.0,STARLINK-4062,PAYLOAD,2022-12-07 12:30:11,15.08840281,0.0001548,53.2192,128.0032,53.8571,306.2564,3.0736e-05,2.01e-06,0.0,0 STARLINK-4062,1 53261U 22086V   22341.52097177  .00000201  00000-0  30736-4 0  9991,2 53261  53.2192 128.0032 0001548  53.8571 306.2564 15.08840281 21516,6917.88,95.438,540.815,538.674,0.0
53261.0,STARLINK-4062,PAYLOAD,2022-12-07 18:51:44,15.08836639,0.0001509,53.2188,126.8136,46.7483,313.3635,-3.6538e-05,-8.69e-06,0.0,0 STARLINK-4062,1 53261U 22086V   22341.78593652 -.00000869  00000-0 -36538-4 0  9996,2 53261  53.2188 126.8136 0001509  46.7483 313.3635 15.08836639 21736,6917.891,95.438,540.8,538.712,0.0
53261.0,STARLINK-4062,PAYLOAD,2022-12-08 02:48:40,15.08840969,0.0001515,53.2189,125.3267,58.2413,301.8727,2.2763e-05,7.4e-07,0.0,0 STARLINK-4062,1 53261U 22086V   22342.11713241  .00000074  00000-0  22763-4 0  9993,2 53261  53.2189 125.3267 0001515  58.2413 301.8727 15.08840969 21784,6917.877,95.437,540.79,538.694,0.0
53261.0,STARLINK-4062,PAYLOAD,2022-12-08 21:53:16,15.08849885,0.0001493,53.219,121.758,60.1617,299.9524,0.00017678,2.527e-05,0.0,0 STARLINK-4062,1 53261U 22086V   22342.91200093  .00002527  00000-0  17678-3 0  9990,2 53261  53.2190 121.7580 0001493  60.1617 299.9524 15.08849885 21729,6917.85,95.437,540.748,538.682,0.0
53261.0,STARLINK-4062,PAYLOAD,2022-12-09 02:39:25,15.0885479,0.0001551,53.219,120.8665,59.3703,300.7442,0.00020135,2.919e-05,0.0,0 STARLINK-4062,1 53261U 22086V   22343.11071682  .00002919  00000-0  20135-3 0  9990,2 53261  53.2190 120.8665 0001551  59.3703 300.7442 15.08854790 21938,6917.835,95.437,540.773,538.627,0.0
53261.0,STARLINK-4062,PAYLOAD,2022-12-09 18:33:18,15.08828991,5.44e-05,53.2191,117.893,16.3886,343.7124,5.1865e-05,5.38e-06,0.0,0 STARLINK-4062,1 53261U 22086V   22343.77313397  .00000538  00000-0  51865-4 0  9994,2 53261  53.2191 117.8930 0000544  16.3886 343.7124 15.08828991 21855,6917.9140000000025,95.438,540.155,539.403,0.0
53261.0,STARLINK-4062,PAYLOAD,2022-12-10 13:37:56,15.08829304,9.93e-05,53.2175,114.3276,3.8698,356.2302,0.00033942,5.117e-05,0.0,0 STARLINK-4062,1 53261U 22086V   22344.56801647  .00005117  00000-0  33942-3 0  9995,2 53261  53.2175 114.3276 0000993   3.8698 356.2302 15.08829304 22152,6917.913000000001,95.438,540.465,539.091,0.0
53261.0,STARLINK-4062,PAYLOAD,2022-12-10 15:13:19,15.08841906,0.0001692,53.2176,114.0303,45.9435,314.1697,9.2732e-06,-1.4e-06,0.0,0 STARLINK-4062,1 53261U 22086V   22344.63425247 -.00000140  00000-0  92732-5 0  9997,2 53261  53.2176 114.0303 0001692  45.9435 314.1697 15.08841906 21986,6917.875,95.437,540.91,538.569,0.0
53261.0,STARLINK-4062,PAYLOAD,2022-12-10 19:59:28,15.08849326,0.0001308,53.2177,113.1351,62.2356,297.8769,0.00012515,1.705e-05,0.0,0 STARLINK-4062,1 53261U 22086V   22344.83296694  .00001705  00000-0  12515-3 0  9997,2 53261  53.2177 113.1351 0001308  62.2356 297.8769 15.08849326 22014,6917.852,95.437,540.622,538.812,0.0
53261.0,STARLINK-4062,PAYLOAD,2022-12-11 13:28:42,15.08849632,0.000159,53.2184,109.8647,55.3528,304.7614,0.00012353,1.679e-05,0.0,0 STARLINK-4062,1 53261U 22086V   22345.56160636  .00001679  00000-0  12353-3 0  9994,2 53261  53.2184 109.8647 0001590  55.3528 304.7614 15.08849632 22308,6917.851,95.437,540.816,538.616,0.0
53261.0,STARLINK-4062,PAYLOAD,2022-12-11 19:50:15,15.08840189,0.0001749,53.2184,108.6762,47.3767,312.7372,0.00015034,2.105e-05,0.0,0 STARLINK-4062,1 53261U 22086V   22345.82657285  .00002105  00000-0  15034-3 0  9998,2 53261  53.2184 108.6762 0001749  47.3767 312.7372 15.08840189 22167,6917.88,95.438,540.955,538.535,0.0
53261.0,STARLINK-4062,PAYLOAD,2022-12-12 11:44:06,15.08842778,0.0001452,53.2186,105.7019,49.6168,310.4951,2.9539e-05,1.82e-06,0.0,0 STARLINK-4062,1 53261U 22086V   22346.48896915  .00000182  00000-0  29539-4 0  9995,2 53261  53.2186 105.7019 0001452  49.6168 310.4951 15.08842778 22448,6917.871999999999,95.437,540.741,538.732,0.0
53261.0,STARLINK-4062,PAYLOAD,2022-12-12 18:05:39,15.08841682,0.0001491,53.2186,104.5127,47.7239,312.3879,2.0818000000000006e-05,4.3e-07,0.0,0 STARLINK-4062,1 53261U 22086V   22346.75392982  .00000043  00000-0  20818-4 0  9997,2 53261  53.2186 104.5127 0001491  47.7239 312.3879 15.08841682 22483,6917.875,95.437,540.7719999999998,538.7090000000002,0.0
53261.0,STARLINK-4062,PAYLOAD,2022-12-13 00:27:11,15.08847186,0.0001426999999999,53.2187,103.3234,47.3012,312.81,0.00012073,1.634e-05,0.0,0 STARLINK-4062,1 53261U 22086V   22347.01888684  .00001634  00000-0  12073-3 0  9996,2 53261  53.2187 103.3234 0001427  47.3012 312.8100 15.08847186 22346,6917.858,95.437,540.711,538.736,0.0
